{
  "type": "FeatureCollection",
  "features": [
    {
      "type": "Feature",
      "properties": {
        "norad_id": 51444,
        "name": "CSG-2",
        "group": "resource",
        "lat": 51.533128342439866,
        "lon": -0.26148527588830806,
        "alt_km": 617.0288185688241,
        "timestamp": "2025-12-14T09:36:22.692350+00:00",
        "meta_object_name": "CSG-2",
        "meta_object_id": "2022-008A",
        "meta_epoch": "2025-12-13T15:12:34.499232",
        "meta_mean_motion": 14.82165839,
        "meta_eccentricity": 0.00015145,
        "meta_inclination": 97.8809,
        "meta_ra_of_asc_node": 168.9433,
        "meta_arg_of_pericenter": 81.9157,
        "meta_mean_anomaly": 278.2228,
        "meta_ephemeris_type": 0,
        "meta_classification_type": "U",
        "meta_norad_cat_id": 51444,
        "meta_element_set_no": 999,
        "meta_rev_at_epoch": 20910,
        "meta_bstar": 9.9250939e-05,
        "meta_mean_motion_dot": 7.38e-06,
        "meta_mean_motion_ddot": 0,
        "tle_line1": "1 51444U 22008A   25347.63373263  .00000738  00000+0  99251-4 0  9991",
        "tle_line2": "2 51444  97.8809 168.9433 0001514  81.9157 278.2228 14.82165839209107"
      },
      "geometry": {
        "type": "Point",
        "coordinates": [
          -0.26148527588830806,
          51.533128342439866
        ]
      }
    },
    {
      "type": "Feature",
      "properties": {
        "norad_id": 52912,
        "name": "GAOFEN-12 03",
        "group": "resource",
        "lat": 28.57808901740565,
        "lon": -128.59810274555474,
        "alt_km": 627.9765225947949,
        "timestamp": "2025-12-14T09:36:22.692360+00:00",
        "meta_object_name": "GAOFEN-12 03",
        "meta_object_id": "2022-069A",
        "meta_epoch": "2025-12-13T17:14:45.388896",
        "meta_mean_motion": 14.79614459,
        "meta_eccentricity": 0.00021312,
        "meta_inclination": 97.8479,
        "meta_ra_of_asc_node": 235.045,
        "meta_arg_of_pericenter": 62.1486,
        "meta_mean_anomaly": 297.9941,
        "meta_ephemeris_type": 0,
        "meta_classification_type": "U",
        "meta_norad_cat_id": 52912,
        "meta_element_set_no": 999,
        "meta_rev_at_epoch": 18718,
        "meta_bstar": 0.00030177454,
        "meta_mean_motion_dot": 2.211e-05,
        "meta_mean_motion_ddot": 0,
        "tle_line1": "1 52912U 22069A   25347.71858089  .00002211  00000+0  30177-3 0  9991",
        "tle_line2": "2 52912  97.8479 235.0450 0002131  62.1486 297.9941 14.79614459187184"
      },
      "geometry": {
        "type": "Point",
        "coordinates": [
          -128.59810274555474,
          28.57808901740565
        ]
      }
    },
    {
      "type": "Feature",
      "properties": {
        "norad_id": 54754,
        "name": "SWOT",
        "group": "resource",
        "lat": -67.49756144787564,
        "lon": 136.79410255188014,
        "alt_km": 900.4938705949899,
        "timestamp": "2025-12-14T09:36:22.692370+00:00",
        "meta_object_name": "SWOT",
        "meta_object_id": "2022-173A",
        "meta_epoch": "2025-12-13T15:15:43.227936",
        "meta_mean_motion": 14.0016705,
        "meta_eccentricity": 3.314e-05,
        "meta_inclination": 77.6107,
        "meta_ra_of_asc_node": 285.7799,
        "meta_arg_of_pericenter": 108.0304,
        "meta_mean_anomaly": 252.0884,
        "meta_ephemeris_type": 0,
        "meta_classification_type": "U",
        "meta_norad_cat_id": 54754,
        "meta_element_set_no": 999,
        "meta_rev_at_epoch": 15318,
        "meta_bstar": 6.4488813e-05,
        "meta_mean_motion_dot": 9.3e-07,
        "meta_mean_motion_ddot": 0,
        "tle_line1": "1 54754U 22173A   25347.63591699  .00000093  00000+0  64489-4 0  9995",
        "tle_line2": "2 54754  77.6107 285.7799 0000331 108.0304 252.0884 14.00167050153186"
      },
      "geometry": {
        "type": "Point",
        "coordinates": [
          136.79410255188014,
          -67.49756144787564
        ]
      }
    },
    {
      "type": "Feature",
      "properties": {
        "norad_id": 57654,
        "name": "GAOFEN-12 04",
        "group": "resource",
        "lat": -19.073586691486007,
        "lon": 81.37608784681814,
        "alt_km": 635.9357715129772,
        "timestamp": "2025-12-14T09:36:22.692380+00:00",
        "meta_object_name": "GAOFEN-12 04",
        "meta_object_id": "2023-123A",
        "meta_epoch": "2025-12-13T16:28:47.561376",
        "meta_mean_motion": 14.79704585,
        "meta_eccentricity": 0.00013402,
        "meta_inclination": 97.9117,
        "meta_ra_of_asc_node": 263.4295,
        "meta_arg_of_pericenter": 75.0934,
        "meta_mean_anomaly": 285.0426,
        "meta_ephemeris_type": 0,
        "meta_classification_type": "U",
        "meta_norad_cat_id": 57654,
        "meta_element_set_no": 999,
        "meta_rev_at_epoch": 12519,
        "meta_bstar": 0.00026708572,
        "meta_mean_motion_dot": 1.955e-05,
        "meta_mean_motion_ddot": 0,
        "tle_line1": "1 57654U 23123A   25347.68666159  .00001955  00000+0  26709-3 0  9992",
        "tle_line2": "2 57654  97.9117 263.4295 0001340  75.0934 285.0426 14.79704585125195"
      },
      "geometry": {
        "type": "Point",
        "coordinates": [
          81.37608784681814,
          -19.073586691486007
        ]
      }
    },
    {
      "type": "Feature",
      "properties": {
        "norad_id": 59065,
        "name": "PARS 1",
        "group": "resource",
        "lat": -60.75137332030035,
        "lon": 125.83011797688825,
        "alt_km": 458.785712294175,
        "timestamp": "2025-12-14T09:36:22.692390+00:00",
        "meta_object_name": "PARS 1",
        "meta_object_id": "2024-039Q",
        "meta_epoch": "2025-12-13T15:25:08.262336",
        "meta_mean_motion": 15.41000683,
        "meta_eccentricity": 0.00125096,
        "meta_inclination": 97.4634,
        "meta_ra_of_asc_node": 318.5948,
        "meta_arg_of_pericenter": 69.607,
        "meta_mean_anomaly": 290.6519,
        "meta_ephemeris_type": 0,
        "meta_classification_type": "U",
        "meta_norad_cat_id": 59065,
        "meta_element_set_no": 999,
        "meta_rev_at_epoch": 10002,
        "meta_bstar": 0.00032868843,
        "meta_mean_motion_dot": 0.0001351,
        "meta_mean_motion_ddot": 0,
        "tle_line1": "1 59065U 24039Q   25347.64245674  .00013510  00000+0  32869-3 0  9992",
        "tle_line2": "2 59065  97.4634 318.5948 0012509  69.6070 290.6519 15.41000683100026"
      },
      "geometry": {
        "type": "Point",
        "coordinates": [
          125.83011797688825,
          -60.75137332030035
        ]
      }
    },
    {
      "type": "Feature",
      "properties": {
        "norad_id": 59371,
        "name": "RESURS-P 4",
        "group": "resource",
        "lat": -29.40919648336943,
        "lon": -61.18631383015103,
        "alt_km": 475.3816839585952,
        "timestamp": "2025-12-14T09:36:22.692400+00:00",
        "meta_object_name": "RESURS-P 4",
        "meta_object_id": "2024-061A",
        "meta_epoch": "2025-12-13T16:29:35.124576",
        "meta_mean_motion": 15.32095446,
        "meta_eccentricity": 0.0001471,
        "meta_inclination": 97.2541,
        "meta_ra_of_asc_node": 293.9978,
        "meta_arg_of_pericenter": 53.3438,
        "meta_mean_anomaly": 306.7939,
        "meta_ephemeris_type": 0,
        "meta_classification_type": "U",
        "meta_norad_cat_id": 59371,
        "meta_element_set_no": 999,
        "meta_rev_at_epoch": 9535,
        "meta_bstar": 0.00016535137,
        "meta_mean_motion_dot": 5.047e-05,
        "meta_mean_motion_ddot": 0,
        "tle_line1": "1 59371U 24061A   25347.68721209  .00005047  00000+0  16535-3 0  9992",
        "tle_line2": "2 59371  97.2541 293.9978 0001471  53.3438 306.7939 15.32095446 95359"
      },
      "geometry": {
        "type": "Point",
        "coordinates": [
          -61.18631383015103,
          -29.40919648336943
        ]
      }
    },
    {
      "type": "Feature",
      "properties": {
        "norad_id": 59625,
        "name": "LEGION 1",
        "group": "resource",
        "lat": 75.48578911544338,
        "lon": -86.28802736626375,
        "alt_km": 511.6098703331554,
        "timestamp": "2025-12-14T09:36:22.692410+00:00",
        "meta_object_name": "LEGION 1",
        "meta_object_id": "2024-081A",
        "meta_epoch": "2025-12-13T15:44:11.977152",
        "meta_mean_motion": 15.16493413,
        "meta_eccentricity": 0.00038839,
        "meta_inclination": 97.5213,
        "meta_ra_of_asc_node": 62.2861,
        "meta_arg_of_pericenter": 314.2454,
        "meta_mean_anomaly": 45.8459,
        "meta_ephemeris_type": 0,
        "meta_classification_type": "U",
        "meta_norad_cat_id": 59625,
        "meta_element_set_no": 999,
        "meta_rev_at_epoch": 8941,
        "meta_bstar": 0.00030416444,
        "meta_mean_motion_dot": 5.858e-05,
        "meta_mean_motion_ddot": 0,
        "tle_line1": "1 59625U 24081A   25347.65569418  .00005858  00000+0  30416-3 0  9999",
        "tle_line2": "2 59625  97.5213  62.2861 0003883 314.2454  45.8459 15.16493413 89410"
      },
      "geometry": {
        "type": "Point",
        "coordinates": [
          -86.28802736626375,
          75.48578911544338
        ]
      }
    }
  ]
}